RSP-03                  
1 65732U 98067XL  26043.64259226  .01595936  19444-2  14645-2 0  9998
2 65732  51.6117 174.7279 0009438 324.4115  35.6270 16.12100303 22966
YOTSUBA-KULOVER         
1 65941U 98067XN  26043.59216736  .00133871  00000+0  99190-3 0  9992
2 65941  51.6248 186.5540 0004383 287.5761  72.4758 15.71964307 19541
BOTAN                   
1 65942U 98067XP  26043.55782541  .00415866  00000+0  14703-2 0  9994
2 65942  51.6168 182.5170 0007628 311.7448  48.2904 15.87394938 19598
E-KAGAKU-1              
1 65943U 98067XQ  26043.59324434  .00132168  00000+0  98465-3 0  9991
2 65943  51.6265 186.5728 0003992 302.8017  57.2596 15.71842830 19547
HRC MONOBLOCK CAMERA    
1 66052U 98067XR  26043.79423368  .00047663  00000+0  58961-3 0  9993
2 66052  51.6269 190.9184 0001633   0.8564 359.2432 15.59615364 18505
HTV-X1                  
1 66174U 25241A   26043.60113347  .00008494  00000+0  16437-3 0  9996
2 66174  51.6314 196.3763 0011105  91.6743 268.5518 15.48566265   518
SZ-21 MODULE            
1 66515U 25246C   26043.27056566  .00039145  00000+0  36437-3 0  9991
2 66515  41.4762 359.5986 0002500 292.2665  67.7911 15.66611010 14084
SHENZHOU-22             
1 66645U 25272A   26043.36548111  .00025006  00000+0  30901-3 0  9997
2 66645  41.4683   2.1188 0004177  70.2177 289.9112 15.59540368267641
SOYUZ-MS 28             
1 66664U 25275A   26043.60113347  .00008494  00000+0  16437-3 0  9997
2 66664  51.6314 196.3763 0011106  91.6743 268.5518 15.48566265552447
DUPLEX                  
1 66906U 98067XS  26043.78470399  .00031917  00000+0  48138-3 0  9996
2 66906  51.6278 193.8544 0001391  78.4261 281.6886 15.54472077 11254
ISS OBJECT XT           
1 66907U 98067XT  26043.62452785  .00112845  00000+0  12305-2 0  9995
2 66907  51.6268 192.7837 0001966 283.0392  77.0382 15.62523563 11258
ISS OBJECT XU           
1 66908U 98067XU  26043.43200364  .00130581  00000+0  14203-2 0  9995
2 66908  51.6262 193.7463 0001762 285.9993  74.0807 15.62515824 11228
